{"epoch":1784799577,"count":18318,"objects":[{"id":"65949","name":"KUIPER-00117","type":"PAYLOAD","l1":"1 65949U 25228C   26203.75760603 -.00006211  00000-0 -78678-3 0  9990","l2":"2 65949  51.9010 120.8029 0000479  98.9544 261.1472 14.79919768 43261"},{"id":"65950","name":"KUIPER-00121","type":"PAYLOAD","l1":"1 65950U 25228D   26203.79685907  .00003425  00000-0  47783-3 0  9994","l2":"2 65950  51.8988 115.6431 0000877 101.3680 258.7381 14.79954431 43343"},{"id":"65951","name":"KUIPER-00122","type":"PAYLOAD","l1":"1 65951U 25228E   26202.77313345  .00002395  00000-0  34290-3 0  9990","l2":"2 65951  51.8997 130.1423 0000876  84.4264 275.6798 14.79949284 43053"},{"id":"65952","name":"KUIPER-00123","type":"PAYLOAD","l1":"1 65952U 25228F   26203.75230681 -.00001076  00000-0 -11215-3 0  9990","l2":"2 65952  51.8990 125.8236 0000952  77.9382 282.1687 14.79933842 43191"},{"id":"65953","name":"KUIPER-00124","type":"PAYLOAD","l1":"1 65953U 25228G   26203.76038739 -.00000680  00000-0 -60250-4 0  9996","l2":"2 65953  51.8991 118.2769 0000801  63.5366 296.5678 14.79935128 43307"},{"id":"65954","name":"KUIPER-00125","type":"PAYLOAD","l1":"1 65954U 25228H   26203.43893647  .00003640  00000-0  50593-3 0  9993","l2":"2 65954  51.9007 104.7432 0000894  97.7723 262.3340 14.79956824 43462"},{"id":"65955","name":"KUIPER-00126","type":"PAYLOAD","l1":"1 65955U 25228J   26202.50568566  .00002549  00000-0  36308-3 0  9995","l2":"2 65955  51.8993 128.8562 0000968  86.2073 273.9000 14.79958404 43041"},{"id":"65956","name":"KUIPER-00127","type":"PAYLOAD","l1":"1 65956U 25228K   26203.71245720  .00003405  00000-0  47522-3 0  9996","l2":"2 65956  51.8990 115.9923 0000995  89.9202 270.1874 14.79952255 43339"},{"id":"65957","name":"KUIPER-00128","type":"PAYLOAD","l1":"1 65957U 25228L   26203.76307115  .00001016  00000-0  16218-3 0  9993","l2":"2 65957  51.8995 115.8330 0002110  91.1403 268.9801 14.79954343 43330"},{"id":"65958","name":"KUIPER-00129","type":"PAYLOAD","l1":"1 65958U 25228M   26203.73469270  .00002520  00000-0  35914-3 0  9997","l2":"2 65958  51.8995 110.9395 0001033  90.8452 269.2628 14.79964334 43401"},{"id":"65959","name":"KUIPER-00130","type":"PAYLOAD","l1":"1 65959U 25228N   26202.75286398  .00003195  00000-0  44776-3 0  9992","l2":"2 65959  51.9017 117.8161 0000821  93.5913 266.5143 14.79947467 33512"},{"id":"65960","name":"KUIPER-00134","type":"PAYLOAD","l1":"1 65960U 25228P   26203.78626739  .00058817  00000-0  13552-2 0  9993","l2":"2 65960  51.8719  24.0757 0006948  82.0575 278.1202 15.42009939 44617"},{"id":"65961","name":"KUIPER-00135","type":"PAYLOAD","l1":"1 65961U 25228Q   26203.05674879  .00004016  00000-0  55517-3 0  9992","l2":"2 65961  51.9020 116.5265 0000920  86.8645 273.2423 14.79957373 43263"},{"id":"65962","name":"KUIPER-00136","type":"PAYLOAD","l1":"1 65962U 25228R   26203.76848878  .00002961  00000-0  41694-3 0  9991","l2":"2 65962  51.9009 110.8326 0000930  89.5956 270.5113 14.79958801 43401"},{"id":"65963","name":"KUIPER-00137","type":"PAYLOAD","l1":"1 65963U 25228S   26203.43352725  .00003327  00000-0  46530-3 0  9998","l2":"2 65963  51.9027 109.8104 0001069  88.7128 271.3957 14.79925232 43395"},{"id":"65964","name":"KUIPER-00138","type":"PAYLOAD","l1":"1 65964U 25228T   26203.74011674  .00003352  00000-0  46855-3 0  9996","l2":"2 65964  51.8977 105.8785 0000811  98.9911 261.1143 14.79924835 43478"}]}