{"fetched_at":"2026-07-23T07:05:17.272Z","source":"https://celestrak.org/NORAD/elements/gp.php?GROUP=kuiper&FORMAT=JSON","constellation":"kuiper","records":[{"OBJECT_NAME":"KUIPER-00117","OBJECT_ID":"2025-228C","EPOCH":"2026-07-22T18:10:57.160992","CLASSIFICATION_TYPE":"U","MEAN_MOTION":14.79919768,"ECCENTRICITY":0.00004786,"INCLINATION":51.901,"RA_OF_ASC_NODE":120.8029,"ARG_OF_PERICENTER":98.9544,"MEAN_ANOMALY":261.1472,"EPHEMERIS_TYPE":0,"NORAD_CAT_ID":65949,"ELEMENT_SET_NO":999,"REV_AT_EPOCH":4326,"BSTAR":-0.00078678094,"MEAN_MOTION_DOT":-0.00006211,"MEAN_MOTION_DDOT":0},{"OBJECT_NAME":"KUIPER-00121","OBJECT_ID":"2025-228D","EPOCH":"2026-07-22T19:07:28.623648","CLASSIFICATION_TYPE":"U","MEAN_MOTION":14.79954431,"ECCENTRICITY":0.0000877,"INCLINATION":51.8988,"RA_OF_ASC_NODE":115.6431,"ARG_OF_PERICENTER":101.368,"MEAN_ANOMALY":258.7381,"EPHEMERIS_TYPE":0,"NORAD_CAT_ID":65950,"ELEMENT_SET_NO":999,"REV_AT_EPOCH":4334,"BSTAR":0.00047783014,"MEAN_MOTION_DOT":0.00003425,"MEAN_MOTION_DDOT":0},{"OBJECT_NAME":"KUIPER-00122","OBJECT_ID":"2025-228E","EPOCH":"2026-07-21T18:33:18.730080","CLASSIFICATION_TYPE":"U","MEAN_MOTION":14.79949284,"ECCENTRICITY":0.00008763,"INCLINATION":51.8997,"RA_OF_ASC_NODE":130.1423,"ARG_OF_PERICENTER":84.4264,"MEAN_ANOMALY":275.6798,"EPHEMERIS_TYPE":0,"NORAD_CAT_ID":65951,"ELEMENT_SET_NO":999,"REV_AT_EPOCH":4305,"BSTAR":0.00034290136,"MEAN_MOTION_DOT":0.00002395,"MEAN_MOTION_DDOT":0},{"OBJECT_NAME":"KUIPER-00123","OBJECT_ID":"2025-228F","EPOCH":"2026-07-22T18:03:19.308384","CLASSIFICATION_TYPE":"U","MEAN_MOTION":14.79933842,"ECCENTRICITY":0.00009518,"INCLINATION":51.899,"RA_OF_ASC_NODE":125.8236,"ARG_OF_PERICENTER":77.9382,"MEAN_ANOMALY":282.1687,"EPHEMERIS_TYPE":0,"NORAD_CAT_ID":65952,"ELEMENT_SET_NO":999,"REV_AT_EPOCH":4319,"BSTAR":-0.00011215096,"MEAN_MOTION_DOT":-0.00001076,"MEAN_MOTION_DDOT":0},{"OBJECT_NAME":"KUIPER-00124","OBJECT_ID":"2025-228G","EPOCH":"2026-07-22T18:14:57.470496","CLASSIFICATION_TYPE":"U","MEAN_MOTION":14.79935128,"ECCENTRICITY":0.00008011,"INCLINATION":51.8991,"RA_OF_ASC_NODE":118.2769,"ARG_OF_PERICENTER":63.5366,"MEAN_ANOMALY":296.5678,"EPHEMERIS_TYPE":0,"NORAD_CAT_ID":65953,"ELEMENT_SET_NO":999,"REV_AT_EPOCH":4330,"BSTAR":-0.000060249666,"MEAN_MOTION_DOT":-0.0000068,"MEAN_MOTION_DDOT":0},{"OBJECT_NAME":"KUIPER-00125","OBJECT_ID":"2025-228H","EPOCH":"2026-07-22T10:32:04.111008","CLASSIFICATION_TYPE":"U","MEAN_MOTION":14.79956824,"ECCENTRICITY":0.00008935,"INCLINATION":51.9007,"RA_OF_ASC_NODE":104.7432,"ARG_OF_PERICENTER":97.7723,"MEAN_ANOMALY":262.334,"EPHEMERIS_TYPE":0,"NORAD_CAT_ID":65954,"ELEMENT_SET_NO":999,"REV_AT_EPOCH":4346,"BSTAR":0.00050593243,"MEAN_MOTION_DOT":0.0000364,"MEAN_MOTION_DDOT":0},{"OBJECT_NAME":"KUIPER-00126","OBJECT_ID":"2025-228J","EPOCH":"2026-07-21T12:08:11.241024","CLASSIFICATION_TYPE":"U","MEAN_MOTION":14.79958404,"ECCENTRICITY":0.00009679,"INCLINATION":51.8993,"RA_OF_ASC_NODE":128.8562,"ARG_OF_PERICENTER":86.2073,"MEAN_ANOMALY":273.9,"EPHEMERIS_TYPE":0,"NORAD_CAT_ID":65955,"ELEMENT_SET_NO":999,"REV_AT_EPOCH":4304,"BSTAR":0.00036308211,"MEAN_MOTION_DOT":0.00002549,"MEAN_MOTION_DDOT":0},{"OBJECT_NAME":"KUIPER-00127","OBJECT_ID":"2025-228K","EPOCH":"2026-07-22T17:05:56.302080","CLASSIFICATION_TYPE":"U","MEAN_MOTION":14.79952255,"ECCENTRICITY":0.0000995,"INCLINATION":51.899,"RA_OF_ASC_NODE":115.9923,"ARG_OF_PERICENTER":89.9202,"MEAN_ANOMALY":270.1874,"EPHEMERIS_TYPE":0,"NORAD_CAT_ID":65956,"ELEMENT_SET_NO":999,"REV_AT_EPOCH":4333,"BSTAR":0.00047521921,"MEAN_MOTION_DOT":0.00003405,"MEAN_MOTION_DDOT":0},{"OBJECT_NAME":"KUIPER-00128","OBJECT_ID":"2025-228L","EPOCH":"2026-07-22T18:18:49.347360","CLASSIFICATION_TYPE":"U","MEAN_MOTION":14.79954343,"ECCENTRICITY":0.00021101,"INCLINATION":51.8995,"RA_OF_ASC_NODE":115.833,"ARG_OF_PERICENTER":91.1403,"MEAN_ANOMALY":268.9801,"EPHEMERIS_TYPE":0,"NORAD_CAT_ID":65957,"ELEMENT_SET_NO":999,"REV_AT_EPOCH":4333,"BSTAR":0.00016218134,"MEAN_MOTION_DOT":0.00001016,"MEAN_MOTION_DDOT":0},{"OBJECT_NAME":"KUIPER-00129","OBJECT_ID":"2025-228M","EPOCH":"2026-07-22T17:37:57.449280","CLASSIFICATION_TYPE":"U","MEAN_MOTION":14.79964334,"ECCENTRICITY":0.00010333,"INCLINATION":51.8995,"RA_OF_ASC_NODE":110.9395,"ARG_OF_PERICENTER":90.8452,"MEAN_ANOMALY":269.2628,"EPHEMERIS_TYPE":0,"NORAD_CAT_ID":65958,"ELEMENT_SET_NO":999,"REV_AT_EPOCH":4340,"BSTAR":0.00035913942,"MEAN_MOTION_DOT":0.0000252,"MEAN_MOTION_DDOT":0},{"OBJECT_NAME":"KUIPER-00130","OBJECT_ID":"2025-228N","EPOCH":"2026-07-21T18:04:07.447872","CLASSIFICATION_TYPE":"U","MEAN_MOTION":14.79947467,"ECCENTRICITY":0.00008212,"INCLINATION":51.9017,"RA_OF_ASC_NODE":117.8161,"ARG_OF_PERICENTER":93.5913,"MEAN_ANOMALY":266.5143,"EPHEMERIS_TYPE":0,"NORAD_CAT_ID":65959,"ELEMENT_SET_NO":999,"REV_AT_EPOCH":3351,"BSTAR":0.00044775741,"MEAN_MOTION_DOT":0.00003195,"MEAN_MOTION_DDOT":0},{"OBJECT_NAME":"KUIPER-00134","OBJECT_ID":"2025-228P","EPOCH":"2026-07-22T18:52:13.502496","CLASSIFICATION_TYPE":"U","MEAN_MOTION":15.42009939,"ECCENTRICITY":0.00069484,"INCLINATION":51.8719,"RA_OF_ASC_NODE":24.0757,"ARG_OF_PERICENTER":82.0575,"MEAN_ANOMALY":278.1202,"EPHEMERIS_TYPE":0,"NORAD_CAT_ID":65960,"ELEMENT_SET_NO":999,"REV_AT_EPOCH":4461,"BSTAR":0.0013551987,"MEAN_MOTION_DOT":0.00058817,"MEAN_MOTION_DDOT":0},{"OBJECT_NAME":"KUIPER-00135","OBJECT_ID":"2025-228Q","EPOCH":"2026-07-22T01:21:43.095456","CLASSIFICATION_TYPE":"U","MEAN_MOTION":14.79957373,"ECCENTRICITY":0.00009196,"INCLINATION":51.902,"RA_OF_ASC_NODE":116.5265,"ARG_OF_PERICENTER":86.8645,"MEAN_ANOMALY":273.2423,"EPHEMERIS_TYPE":0,"NORAD_CAT_ID":65961,"ELEMENT_SET_NO":999,"REV_AT_EPOCH":4326,"BSTAR":0.00055517205,"MEAN_MOTION_DOT":0.00004016,"MEAN_MOTION_DDOT":0},{"OBJECT_NAME":"KUIPER-00136","OBJECT_ID":"2025-228R","EPOCH":"2026-07-22T18:26:37.430592","CLASSIFICATION_TYPE":"U","MEAN_MOTION":14.79958801,"ECCENTRICITY":0.00009299,"INCLINATION":51.9009,"RA_OF_ASC_NODE":110.8326,"ARG_OF_PERICENTER":89.5956,"MEAN_ANOMALY":270.5113,"EPHEMERIS_TYPE":0,"NORAD_CAT_ID":65962,"ELEMENT_SET_NO":999,"REV_AT_EPOCH":4340,"BSTAR":0.00041694041,"MEAN_MOTION_DOT":0.00002961,"MEAN_MOTION_DDOT":0},{"OBJECT_NAME":"KUIPER-00137","OBJECT_ID":"2025-228S","EPOCH":"2026-07-22T10:24:16.754400","CLASSIFICATION_TYPE":"U","MEAN_MOTION":14.79925232,"ECCENTRICITY":0.00010693,"INCLINATION":51.9027,"RA_OF_ASC_NODE":109.8104,"ARG_OF_PERICENTER":88.7128,"MEAN_ANOMALY":271.3957,"EPHEMERIS_TYPE":0,"NORAD_CAT_ID":65963,"ELEMENT_SET_NO":999,"REV_AT_EPOCH":4339,"BSTAR":0.00046530063,"MEAN_MOTION_DOT":0.00003327,"MEAN_MOTION_DDOT":0},{"OBJECT_NAME":"KUIPER-00138","OBJECT_ID":"2025-228T","EPOCH":"2026-07-22T17:45:46.086336","CLASSIFICATION_TYPE":"U","MEAN_MOTION":14.79924835,"ECCENTRICITY":0.00008114,"INCLINATION":51.8977,"RA_OF_ASC_NODE":105.8785,"ARG_OF_PERICENTER":98.9911,"MEAN_ANOMALY":261.1143,"EPHEMERIS_TYPE":0,"NORAD_CAT_ID":65964,"ELEMENT_SET_NO":999,"REV_AT_EPOCH":4347,"BSTAR":0.00046854645,"MEAN_MOTION_DOT":0.00003352,"MEAN_MOTION_DDOT":0}]}
